BEESAT-4                
1 41619U 16040W   21275.09517433  .00005782  00000-0  22649-3 0  9999
2 41619  97.2588 328.1704 0009175 321.5301  38.5283 15.26132975281274
CAS-2T & KS-1Q          
1 41847U 16066G   21275.40449712  .00000200  00000-0  41422-4 0  9990
2 41847  98.5901 334.9193 0363950 261.0726  94.9104 14.38242996257256
NAYIF-1 (EO-88)         
1 42017U 17008BX  21275.72882095  .00006130  00000-0  22096-3 0  9990
2 42017  97.3065 341.3936 0007546  89.9850 270.2255 15.28876316257640
ZHUHAI-1 02 (CAS-4B)    
1 42759U 17034B   21275.84551975  .00001369  00000-0  95101-4 0  9992
2 42759  43.0187 310.6061 0006762 116.8006  51.8809 15.10407472237387
ZHUHAI-1 01 (CAS-4A)    
1 42761U 17034D   21275.83027303  .00001301  00000-0  90823-4 0  9999
2 42761  43.0191 309.6664 0007199 119.3978  49.4005 15.10494039237389
MAX VALIER SAT          
1 42778U 17036P   21275.40802977  .00002939  00000-0  12394-3 0  9994
2 42778  97.2449 320.4738 0012637 151.7670 208.4255 15.24006764237573
RADFXSAT (FOX-1B)       
1 43017U 17073E   21275.18083868  .00002055  00000-0  16332-3 0  9992
2 43017  97.6943 174.8830 0253076 312.3586  45.6441 14.79796411208909
FOX-1D (AO-92)          
1 43137U 18004AC  21275.77877891  .00003535  00000-0  14144-3 0  9995
2 43137  97.3967 348.6938 0008508 182.6140 177.5013 15.25712427207015
DIWATA-2B               
1 43678U 18084H   21275.70732566  .00000211  00000-0  26714-4 0  9990
2 43678  97.9368  41.6243 0011212  61.9182 298.3174 14.91796452159429
ES'HAIL 2               
1 43700U 18090A   21275.40049476  .00000142  00000-0  00000+0 0  9999
2 43700   0.0172 157.8109 0002425  66.2141 317.3046  1.00273539 10689
FOX-1CLIFF (AO-95)      
1 43770U 18099N   21275.44548676  .00000504  00000-0  50602-4 0  9995
2 43770  97.6555 343.2240 0015666  62.9683 297.3135 14.95448891154447
ITASAT 1                
1 43786U 18099AE  21275.74565061  .00001185  00000-0  11128-3 0  9997
2 43786  97.6579 344.2697 0016374  55.9617 304.3157 14.95729626154523
JY1SAT (JO-97)          
1 43803U 18099AX  21275.42342725  .00000895  00000-0  84662-4 0  9993
2 43803  97.6542 343.6960 0016351  56.3719 303.9059 14.96002992154484
UWE-4                   
1 43880U 18111E   21275.73618534  .00000930  00000-0  85699-4 0  9992
2 43880  97.6765 181.5935 0013432 103.1288 257.1433 14.97005439149138
NEXUS (FO-99)           
1 43937U 19003F   21275.53410580  .00004693  00000-0  18230-3 0  9991
2 43937  97.1674 314.4001 0022525 357.3519   2.7597 15.26303809150591
PSAT2 (NO-104)          
1 44354U 19036R   21275.00177621  .00030712  00000-0  39181-3 0  9998
2 44354  28.5272 134.8062 0312208 354.3457   5.3661 15.16996563125155
BRICSAT2 (NO-103)       
1 44355U 19036S   21275.45101180  .00069904 -47967-5  66393-3 0  9994
2 44355  28.5247  66.9621 0233907 104.5202 258.1463 15.37843239125865
JAISAT-1                
1 44419U 19038F   21275.64595853  .00003968  00000-0  22043-3 0  9995
2 44419  97.5999 240.0409 0019387 305.8016  54.1413 15.14152677124017
DUCHIFAT-3              
1 44854U 19089C   21275.79644175  .00001385  00000-0  11652-3 0  9997
2 44854  36.9663 185.7622 0009482 288.9518  71.0214 14.99662029 99220
CAS-6 (TO-108)          
1 44881U 19093C   21275.79101309  .00000164  00000-0  27658-4 0  9997
2 44881  97.9174 353.4179 0013998 307.9296  52.0655 14.81486309 96622
RS-44 & BREEZE-KM R/B   
1 44909U 19096E   21275.11128152  .00000016  00000-0  22905-4 0  9998
2 44909  82.5239  41.9281 0217147 203.5000 155.6064 12.79711188 82466
ORBITAL FACTORY 2 (OF-2)
1 45113U 19071C   21275.28839376  .00007697  00000-0  22122-3 0  9996
2 45113  51.6408 239.1806 0011072 324.0440  35.9797 15.36747124 93593
HUSKYSAT-1 (HO-107)     
1 45119U 19071J   21275.62534746  .00009088  00000-0  25959-3 0  9990
2 45119  51.6404 236.9222 0010500 321.5423  38.4811 15.36705514 93648
BY70-2                  
1 45857U 20042B   21275.80611058  .00002046  00000-0  29511-3 0  9996
2 45857  97.9779 350.4299 0010259 220.9755 139.0693 14.77336614 67396
SALSAT                  
1 46495U 20068K   21275.27795346  .00000742  00000-0  58677-4 0  9994
2 46495  97.6987 212.1748 0019012  72.5472 287.7832 15.03574266 55388
BY70-3                  
1 46839U 20079N   21275.88484191  .00007240  00000-0  21838-3 0  9996
2 46839  97.2318 347.6162 0007474 167.5311 318.2462 15.34560682 50671
RADFXSAT-2 (AO-109)     
1 47311U 21002C   21275.18763216  .00002692  00000-0  12614-3 0  9998
2 47311  60.6857 251.5289 0041480 101.9559 258.6183 15.22071726 39119
UVSQ-SAT                
1 47438U 21006AB  21275.70103989  .00002465  00000-0  14136-3 0  9994
2 47438  97.4769 334.9589 0014312  88.7743 271.5128 15.13422112 38277
DIY-1 (ARDUIQUBE)       
1 47963U 21022AH  21275.22736749  .00004570  00000-0  30125-3 0  9993
2 47963  97.5463 175.6469 0018127 303.9853  55.9653 15.07856217 27984
